OBJECT_NAME,OBJECT_ID,EPOCH,MEAN_MOTION,ECCENTRICITY,INCLINATION,RA_OF_ASC_NODE,ARG_OF_PERICENTER,MEAN_ANOMALY,EPHEMERIS_TYPE,CLASSIFICATION_TYPE,NORAD_CAT_ID,ELEMENT_SET_NO,REV_AT_EPOCH,BSTAR,MEAN_MOTION_DOT,MEAN_MOTION_DDOT
PERSEUS-M1,2014-033AF,2026-05-18T07:55:43.068576,14.95523176,.0012724,97.9634,81.9777,42.8372,317.3837,0,U,40039,999,64617,.13186E-3,.1402E-4,0
POLYITAN-1,2014-033AJ,2026-05-18T19:17:58.762176,15.32154281,.0005697,98.0962,162.3101,240.0236,120.0439,0,U,40042,999,64909,.38317E-3,.11817E-3,0
TIGRISAT,2014-033AK,2026-05-18T09:39:30.506688,14.85021879,.0049726,97.7798,289.1061,170.8027,189.4111,0,U,40043,999,64120,.16395E-3,.1375E-4,0
AEROCUBE 6A,2014-033AM,2026-05-18T16:45:26.455104,14.97754688,.0040156,97.7223,305.9733,113.3523,247.1931,0,U,40045,999,64220,.28783E-3,.3373E-4,0
AEROCUBE 6B,2014-033AN,2026-05-18T11:05:22.226784,14.99173041,.0038503,97.7175,305.4682,107.4236,253.1202,0,U,40046,999,64230,.32628E-3,.3972E-4,0
CANX-4,2014-034C,2026-05-18T05:25:59.200032,14.81203571,.0014077,98.3159,12.4349,105.7344,254.5421,0,U,40055,999,64009,.79924E-4,.566E-5,0
CANX-5,2014-034D,2026-05-18T02:09:40.600800,14.81220629,.0014071,98.3163,12.3353,106.3261,253.9499,0,U,40056,999,63088,.82172E-4,.583E-5,0
UKUBE-1,2014-037F,2026-05-18T17:51:16.846272,15.13031355,.0000383,98.4241,138.9361,132.1427,227.9833,0,U,40074,999,64410,.3135E-3,.5462E-4,0
BRITE-PL2 (HEWELIUSZ),2014-049B,2026-05-18T07:28:58.371744,14.94468289,.0013576,97.9065,250.0897,203.4228,156.6375,0,U,40119,999,63698,.12594E-3,.1301E-4,0
AEROCUBE 5C,2015-058B,2026-05-18T20:48:32.719968,14.91273609,.0129924,64.7682,353.7926,74.7977,286.7459,0,U,40965,999,36128,.19788E-3,.2142E-4,0
AEROCUBE 7,2015-058C,2026-05-18T19:30:25.718688,14.95480192,.0119689,64.7625,336.8066,73.4969,287.9256,0,U,40966,999,36156,.24126E-3,.2909E-4,0
FOX-1A (AO-85),2015-058D,2026-05-18T15:16:53.001120,14.90780838,.0129201,64.7765,10.8054,68.1875,293.2924,0,U,40967,999,10916,.19406E-3,.2064E-4,0
SINOD-D 1,2015-058E,2026-05-18T20:40:00.578784,14.95659384,.011772,64.7760,350.7343,64.8575,296.4696,0,U,40968,999,11227,.25259E-3,.3055E-4,0
SNAP-3 ALICE,2015-058G,2026-05-18T21:08:11.959008,15.54033874,.0033312,64.7516,204.7284,26.9654,333.3210,0,U,40970,999,11232,.85193E-3,.57008E-3,0
LMRST-SAT,2015-058H,2026-05-18T05:58:39.313632,14.90404641,.0130952,64.7771,8.2915,70.3605,291.1585,0,U,40971,999,10909,.19788E-3,.2096E-4,0
SNAP-3 EDDIE,2015-058J,2026-05-18T13:43:08.023296,15.55164174,.0033654,64.7433,196.7243,30.9859,329.3260,0,U,40972,999,11441,.68228E-3,.47515E-3,0
PROPCUBE 3,2015-058K,2026-05-18T19:49:57.946368,14.94042196,.0123088,64.7689,344.2560,71.6205,289.8247,0,U,40973,999,11041,.22814E-3,.2654E-4,0
BISONSAT,2015-058L,2026-05-18T17:47:16.245600,15.15551834,.0078634,64.7603,268.7929,59.7512,301.1366,0,U,40974,999,11115,.34335E-3,.6867E-4,0
SNAP-3 JIMI,2015-058M,2026-05-18T11:54:51.933024,15.01974279,.0105058,64.7647,313.6885,67.7032,293.5184,0,U,40975,999,10976,.26739E-3,.3767E-4,0
PROPCUBE 1 (FLORA),2015-058N,2026-05-18T02:37:23.093184,14.89036393,.0129745,64.7761,28.4429,72.6996,288.8262,0,U,40976,999,11178,.20931E-3,.2137E-4,0
SINOD-D 3,2015-058P,2026-05-18T15:39:09.126144,14.93771177,.0118243,64.7736,8.0320,69.9373,291.4421,0,U,40977,999,11034,.23995E-3,.2747E-4,0
HORYU-4,2016-012D,2026-05-18T17:54:52.000416,15.79598825,.0004626,30.9885,292.2958,76.1068,284.0104,0,U,41340,999,56613,.71945E-3,.139486E-2,0
RAVAN,2016-067B,2026-05-18T09:46:48.908064,15.51749826,.0007212,97.9935,24.6077,105.3374,254.8674,0,U,41849,999,52307,.46544E-3,.2773E-3,0
CELTEE 1,2016-067C,2026-05-18T20:05:46.383360,15.19364275,.0001513,98.0706,3.4044,56.9062,303.2316,0,U,41850,999,52142,.17676E-3,.366E-4,0
OPTICUBE 04,2016-067D,2026-05-18T20:20:42.827424,15.09522411,.0014844,98.0727,349.5990,212.6570,147.3741,0,U,41851,999,52074,.92606E-4,.1416E-4,0
AEROCUBE 8D,2016-067E,2026-05-18T08:24:02.199744,15.23941579,.0002281,98.0716,6.2566,217.4113,142.6964,0,U,41852,999,52152,.19073E-3,.453E-4,0
AEROCUBE 8C,2016-067F,2026-05-18T20:08:38.406624,15.24186370,.0006022,98.0587,4.0491,148.5093,211.6504,0,U,41853,999,52159,.21373E-3,.5126E-4,0
CORVUS BC2,2017-042X,2026-05-18T16:44:54.868128,15.06087208,.0012354,97.4040,301.2041,205.9532,154.1077,0,U,42846,999,48262,.11147E-3,.1571E-4,0
CORVUS BC1,2017-042Y,2026-05-18T08:43:40.185984,15.06256630,.0011849,97.4069,301.6776,182.5577,177.5592,0,U,42847,999,48260,.10679E-3,.151E-4,0
MAKERSAT 0,2017-073D,2026-05-18T09:15:12.313152,15.30759863,.0110697,97.4666,20.6957,20.1590,340.3970,0,U,43016,999,46190,.41471E-3,.14841E-3,0
